[{"OBJECT_NAME":"ONEWEB-0679","OBJECT_ID":"2023-068F","EPOCH":"2026-03-09T21:58:32.448576","MEAN_MOTION":13.16593761,"ECCENTRICITY":0.00013538,"INCLINATION":87.9012,"RA_OF_ASC_NODE":248.5082,"ARG_OF_PERICENTER":74.9432,"MEAN_ANOMALY":285.1848,"EPHEMERIS_TYPE":0,"CLASSIFICATION_TYPE":"U","NORAD_CAT_ID":56715,"ELEMENT_SET_NO":999,"REV_AT_EPOCH":13866,"BSTAR":-9.875507e-6,"MEAN_MOTION_DOT":9.0e-8,"MEAN_MOTION_DDOT":0},{"OBJECT_NAME":"DELTA 1 DEB","OBJECT_ID":"1975-052FH","EPOCH":"2026-03-09T12:00:19.324224","MEAN_MOTION":13.61184297,"ECCENTRICITY":0.0239805,"INCLINATION":99.9233,"RA_OF_ASC_NODE":257.6622,"ARG_OF_PERICENTER":217.4786,"MEAN_ANOMALY":200.5994,"EPHEMERIS_TYPE":0,"CLASSIFICATION_TYPE":"U","NORAD_CAT_ID":21473,"ELEMENT_SET_NO":999,"REV_AT_EPOCH":71970,"BSTAR":0.0012556736,"MEAN_MOTION_DOT":1.109e-5,"MEAN_MOTION_DDOT":0}]
